category,city,district,name,lng,lat,error
道路街巷类,南京市,玄武区,成贤街,118.795834,32.053849,
道路街巷类,南京市,玄武区,汉府街,118.802593,32.042064,
道路街巷类,南京市,秦淮区,乌衣巷,118.791468,32.017761,
道路街巷类,南京市,秦淮区,御道街,118.816086,32.025065,
道路街巷类,南京市,秦淮区,状元境,118.787571,32.022427,
道路街巷类,南京市,秦淮区,花露岗,118.794792,32.039065,
道路街巷类,南京市,秦淮区,贡院街,118.790293,32.020507,
道路街巷类,南京市,秦淮区,长干里,118.794792,32.039065,
道路街巷类,南京市,鼓楼区,虎踞关,118.763679,32.050706,
道路街巷类,南京市,鼓楼区,龙蟠里,118.764603,32.045871,
道路街巷类,南京市,六合区,专诸巷,118.844891,32.340280,
道路街巷类,南京市,六合区,瓜步街,118.822241,32.323235,
道路街巷类,南京市,高淳区,漆桥老街,118.992783,31.379475,
道路街巷类,南京市,高淳区,高淳老街,118.867978,31.319936,
道路街巷类,无锡市,梁溪区,南长街,120.322149,31.551464,
道路街巷类,无锡市,江阴市,刘伶巷,120.273068,31.899655,
道路街巷类,无锡市,宜兴市,蜀山街,119.861585,31.263637,
道路街巷类,徐州市,鼓楼区,府署街,117.185643,34.288736,
道路街巷类,徐州市,云龙区,彭城路,117.188113,34.259489,
道路街巷类,徐州市,泉山区,苏堤路,117.176222,34.252475,
道路街巷类,常州市,天宁区,青果巷,119.956998,31.772501,
道路街巷类,常州市,钟楼区,青云坊,119.954695,31.778161,
道路街巷类,常州市,新北区,孟河老街,119.847032,32.009440,
道路街巷类,常州市,溧阳市,平陵路,119.484969,31.423765,
道路街巷类,苏州市,姑苏区,干将路,120.636260,31.309397,
道路街巷类,苏州市,姑苏区,观前街,120.626373,31.311266,
道路街巷类,苏州市,姑苏区,平江路,120.632949,31.317244,
道路街巷类,苏州市,姑苏区,山塘街,120.603221,31.315476,
道路街巷类,苏州市,姑苏区,桃花坞大街,120.616536,31.320231,
道路街巷类,苏州市,姑苏区,吴趋坊,120.610509,31.313241,
道路街巷类,苏州市,姑苏区,相王路,120.640324,31.296204,
道路街巷类,苏州市,姑苏区,专诸巷,120.606654,31.313233,
道路街巷类,苏州市,常熟市,言子巷,120.752512,31.656016,
道路街巷类,苏州市,昆山市,三贤街,120.980795,31.385476,
道路街巷类,南通市,崇川区,寺街,120.862729,32.020268,
道路街巷类,南通市,通州区,西大街,121.073742,32.065972,
道路街巷类,南通市,海门区,余东老街,121.359819,32.013719,
道路街巷类,南通市,如东县,良臣巷,121.184950,32.331584,
道路街巷类,南通市,如皋市,东大街,120.526958,32.146071,
道路街巷类,连云港市,连云区,苍梧古道,119.338901,34.760317,
道路街巷类,连云港市,海州区,孔巷,119.136363,34.572903,
道路街巷类,连云港市,海州区,东大街石板路,119.140053,34.570392,
道路街巷类,连云港市,海州区,十字街,119.163492,34.572506,
道路街巷类,连云港市,东海县,马陵古道,118.752869,34.542194,
道路街巷类,连云港市,灌南县,悦来集街,119.352556,34.095768,
道路街巷类,淮安市,淮安区,府学街,119.148053,33.500655,
道路街巷类,淮安市,淮安区,驸马巷,119.142631,33.506724,
道路街巷类,淮安市,淮安区,东长街,119.148333,33.504161,
道路街巷类,淮安市,淮安区,老西门大街,119.141183,33.502960,
道路街巷类,淮安市,淮阴区,高堰老街,118.882255,33.424728,
道路街巷类,淮安市,淮阴区,安澜大街,119.132608,33.621238,
道路街巷类,淮安市,淮阴区,中市街,118.892986,33.699974,
道路街巷类,淮安市,清江浦区,都天庙街,119.032656,33.590340,
道路街巷类,淮安市,洪泽区,蒋坝老街,118.736555,33.104146,
道路街巷类,淮安市,盱眙县,宣化街,118.511001,33.014263,
道路街巷类,盐城市,阜宁县,青沟老街,119.532931,33.501755,
道路街巷类,盐城市,东台市,安丰古街,120.404832,32.728500,
道路街巷类,扬州市,广陵区,引市街,119.442342,32.386196,
道路街巷类,扬州市,广陵区,仁丰里,119.437048,32.391535,
道路街巷类,扬州市,广陵区,曹李巷,119.436710,32.389500,
道路街巷类,扬州市,广陵区,东关街,119.450049,32.397856,
道路街巷类,扬州市,广陵区,南河下,119.445029,32.383621,
道路街巷类,扬州市,广陵区,旌忠巷,119.435146,32.390451,
道路街巷类,扬州市,广陵区,东圈门,119.443894,32.395213,
道路街巷类,扬州市,广陵区,书院巷,119.430128,32.398095,
道路街巷类,扬州市,邗江区,竹西路,119.465752,32.422467,
道路街巷类,扬州市,江都区,邵伯中大街,119.519324,32.521422,
道路街巷类,扬州市,高邮市,大淖巷,119.458920,32.781606,
道路街巷类,扬州市,高邮市,南门大街,119.437456,32.770640,
道路街巷类,扬州市,高邮市,馆驿巷,119.440682,32.771373,
道路街巷类,镇江市,京口区,第一楼街,119.455550,32.207799,
道路街巷类,镇江市,京口区,老北门,119.463015,32.209265,
道路街巷类,镇江市,京口区,千秋桥街,119.455223,32.208821,
道路街巷类,镇江市,京口区,青云门,119.459177,32.209496,
道路街巷类,镇江市,京口区,梦溪园巷,119.462119,32.202883,
道路街巷类,镇江市,京口区,道署街,119.450529,32.209996,
道路街巷类,镇江市,润州区,西津渡街,119.430227,32.215585,
道路街巷类,镇江市,润州区,北府路,119.430308,32.191312,
道路街巷类,镇江市,润州区,朱方路,119.412634,32.191377,
道路街巷类,镇江市,润州区,京畿路,119.427953,32.208574,
道路街巷类,镇江市,丹徒区,驸马街,119.439511,32.137268,
道路街巷类,镇江市,句容市,义台街,119.168840,31.943109,
道路街巷类,泰州市,海陵区,斗姥宫巷,119.923825,32.492480,
道路街巷类,泰州市,海陵区,十胜街,119.914401,32.485797,
道路街巷类,泰州市,海陵区,钟楼巷,119.919557,32.489086,
道路街巷类,泰州市,高港区,庆元街,119.878585,32.302943,
道路街巷类,泰州市,兴化市,东城外大街,119.850330,32.933558,
道路街巷类,泰州市,兴化市,城内东大街,119.844010,32.934771,
道路街巷类,泰州市,兴化市,儒学街,119.844382,32.932763,
道路街巷类,宿迁市,宿城区,梧桐巷,118.299177,33.937052,
道路街巷类,宿迁市,宿城区,新盛街,118.303227,33.957224,
道路街巷类,宿迁市,沭阳县,城内大街,118.780478,34.131162,
道路街巷类,宿迁市,泗阳县,城厢街,118.703636,33.723576,
古桥梁类,南京市,玄武区,北门桥,118.787615,32.048527,
古桥梁类,南京市,玄武区,珍珠桥,118.797779,32.048644,
古桥梁类,南京市,秦淮区,文德桥,118.789189,32.019439,
古桥梁类,南京市,秦淮区,长干桥,118.781410,32.011323,
古桥梁类,南京市,秦淮区,朱雀桥,118.784606,32.014556,
古桥梁类,南京市,雨花台区,板桥,118.663777,31.923143,
古桥梁类,南京市,雨花台区,铁心桥,118.766893,31.944411,
古桥梁类,南京市,江宁区,周郎桥,119.080280,31.933095,
古桥梁类,南京市,江宁区,藏龙桥,118.839510,31.953195,
古桥梁类,南京市,六合区,龙津桥,118.841532,32.338578,
古桥梁类,南京市,溧水区,天生桥,118.976330,31.636144,
古桥梁类,南京市,秦淮区,赛虹桥,118.794792,32.039065,
古桥梁类,南京市,建邺区,赛虹桥,118.764648,32.014316,
古桥梁类,南京市,雨花台区,赛虹桥,118.762727,31.997239,
古桥梁类,无锡市,滨湖区,巡塘桥,120.317603,31.479830,
古桥梁类,无锡市,梁溪区,清名桥,120.316860,31.549947,
古桥梁类,无锡市,宜兴市,蛟桥,119.821873,31.338429,
古桥梁类,无锡市,宜兴市,玉带桥,119.661663,31.290332,
古桥梁类,徐州市,睢宁县,圯桥,117.941364,33.913727,
古桥梁类,常州市,天宁区,乌衣桥,119.999439,31.792320,
古桥梁类,常州市,天宁区,新坊桥,119.963154,31.771735,
古桥梁类,常州市,新北区,万缘桥,119.960925,31.863550,
古桥梁类,常州市,新北区,伯牙桥,119.960925,31.863550,
古桥梁类,常州市,金坛区,望仙桥,119.587503,31.722384,
古桥梁类,苏州市,虎丘区,行春桥,120.588735,31.255065,
古桥梁类,苏州市,虎丘区,越城桥,120.434238,31.329601,
古桥梁类,苏州市,吴中区,宝带桥,120.654001,31.255173,
古桥梁类,苏州市,吴中区,香花桥,120.632094,31.263604,
古桥梁类,苏州市,吴中区,炙鱼桥,120.632094,31.263604,
古桥梁类,苏州市,相城区,凤凰桥,120.642391,31.369189,
古桥梁类,苏州市,姑苏区,钓桥,120.617367,31.335648,
古桥梁类,苏州市,姑苏区,枫桥,120.617367,31.335648,
古桥梁类,苏州市,姑苏区,皋桥,120.610152,31.315744,
古桥梁类,苏州市,姑苏区,吉利桥,120.616035,31.300405,
古桥梁类,苏州市,姑苏区,乐桥,120.625603,31.307148,
古桥梁类,苏州市,姑苏区,觅渡桥,120.646228,31.288248,
古桥梁类,苏州市,姑苏区,山塘桥,120.603614,31.316021,
古桥梁类,苏州市,姑苏区,望星桥,120.617367,31.335648,
古桥梁类,苏州市,姑苏区,乌鹊桥,120.627455,31.298614,
古桥梁类,苏州市,姑苏区,吴门桥,120.632734,31.283892,
古桥梁类,苏州市,姑苏区,苑桥,120.617367,31.335648,
古桥梁类,苏州市,姑苏区,寿安桥,120.634348,31.310850,
古桥梁类,苏州市,姑苏区,思婆桥,120.634632,31.309939,
古桥梁类,苏州市,吴江区,垂虹桥,120.649167,31.155069,
古桥梁类,苏州市,吴江区,三里桥,120.568856,30.974161,
古桥梁类,苏州市,吴江区,思本桥,120.702675,31.154671,
古桥梁类,苏州市,吴江区,安德桥,120.645216,30.975378,
古桥梁类,苏州市,太仓市,州桥,121.130344,31.458043,
古桥梁类,南通市,海安市,立发桥,120.467790,32.532853,
古桥梁类,连云港市,海州区,九龙桥,119.289443,34.640913,
古桥梁类,淮安市,清江浦区,若飞桥,119.035979,33.593384,
古桥梁类,盐城市,东台市,通圣桥,120.320308,32.867845,
古桥梁类,扬州市,广陵区,万福桥,119.431785,32.395654,
古桥梁类,扬州市,邗江区,扬子桥,119.397935,32.377410,
古桥梁类,扬州市,邗江区,二十四桥,119.412698,32.409998,
古桥梁类,扬州市,邗江区,黄金坝桥,119.450581,32.416516,
古桥梁类,扬州市,邗江区,五亭桥,119.420041,32.408808,
古桥梁类,扬州市,邗江区,雷塘桥,119.421268,32.443943,
古桥梁类,扬州市,宝应县,广惠桥,119.358389,33.241125,
古桥梁类,扬州市,仪征市,胥浦桥,119.140726,32.284148,
古桥梁类,镇江市,京口区,拖板桥,119.470186,32.198285,
古桥梁类,镇江市,京口区,丁卯桥,119.479693,32.183171,
古桥梁类,镇江市,丹阳市,吕渎桥,119.774871,31.841412,
古桥梁类,泰州市,海陵区,伏龙桥,119.923825,32.492480,
古桥梁类,泰州市,靖江市,思岳桥,120.277124,31.983250,
古桥梁类,宿迁市,宿城区,通汇桥,118.242048,33.963891,
